{"type": "FeatureCollection", "features": [{"type": "Feature", "geometry": {"type": "Polygon", "coordinates": [[[76.06846819426444, 11.685858534334812], [76.0658690024225, 11.689251175591288], [76.06176281641709, 11.689578015865045], [76.05947530464739, 11.685858534334812], [76.06151723199343, 11.681713688105269], [76.0667101184344, 11.681009037410655], [76.06846819426444, 11.685858534334812]]]}, "properties": {"id": "CHG-001", "status": "Potential Canopy Loss", "affected_area_ha": 83.19, "comparison": "2022 \u2192 2026", "evidence": ["NDVI decrease", "SAR backscatter change", "Canopy coverage reduction"], "confidence_pct": 92}}, {"type": "Feature", "geometry": {"type": "Polygon", "coordinates": [[[76.06556206362463, 11.615275697229329], [76.06287059170565, 11.619042048623754], [76.05860174835226, 11.618903199412504], [76.05679704373449, 11.615275697229329], [76.05840755367775, 11.611311840003339], [76.06313639532189, 11.611048960466723], [76.06556206362463, 11.615275697229329]]]}, "properties": {"id": "CHG-002", "status": "Potential Canopy Loss", "affected_area_ha": 69.51, "comparison": "2022 \u2192 2026", "evidence": ["NDVI decrease", "SAR backscatter change", "Canopy coverage reduction"], "confidence_pct": 91}}, {"type": "Feature", "geometry": {"type": "Polygon", "coordinates": [[[76.08254116180986, 11.628819332597905], [76.07922992050636, 11.633050053870774], [76.0741545388707, 11.633379430185787], [76.07177100487822, 11.628819332597905], [76.0750790579638, 11.625860549051842], [76.07985041928086, 11.623513875921562], [76.08254116180986, 11.628819332597905]]]}, "properties": {"id": "CHG-003", "status": "Potential Canopy Loss", "affected_area_ha": 88.95, "comparison": "2022 \u2192 2026", "evidence": ["NDVI decrease", "SAR backscatter change", "Canopy coverage reduction"], "confidence_pct": 93}}, {"type": "Feature", "geometry": {"type": "Polygon", "coordinates": [[[76.13566821239387, 11.65909367552429], [76.13421667164488, 11.66289845076786], [76.13049673032947, 11.661732027640177], [76.1292040931151, 11.65909367552429], [76.13055558163859, 11.656557256865884], [76.13377770241662, 11.656049217287013], [76.13566821239387, 11.65909367552429]]]}, "properties": {"id": "CHG-004", "status": "Potential Canopy Loss", "affected_area_ha": 50.38, "comparison": "2022 \u2192 2026", "evidence": ["NDVI decrease", "SAR backscatter change", "Canopy coverage reduction"], "confidence_pct": 82}}, {"type": "Feature", "geometry": {"type": "Polygon", "coordinates": [[[76.12925544904601, 11.611557390006816], [76.12775823438702, 11.61565810243969], [76.12321176275437, 11.615331397436865], [76.12070281556862, 11.611557390006816], [76.1229454068669, 11.607322040646771], [76.1269309037889, 11.608889656204534], [76.12925544904601, 11.611557390006816]]]}, "properties": {"id": "CHG-005", "status": "Potential Canopy Loss", "affected_area_ha": 64.77, "comparison": "2022 \u2192 2026", "evidence": ["NDVI decrease", "SAR backscatter change", "Canopy coverage reduction"], "confidence_pct": 90}}]}